PHISAT 2                
1 60470U 24149C   26068.78834181  .00008925  00000+0  31421-3 0  9996
2 60470  97.3806 148.6498 0001175 168.6230 191.5037 15.29548631 86792
STARLINK-36122          
1 66952U 25286AD  26068.18172151  .00032008  00000+0  10886-2 0  9996
2 66952  53.1591   1.1881 0001013  73.1350 286.9762 15.30185779 15335
